IRIDIUM 151             
1 43074U 17083E   26116.59897169  .00000113  00000+0  33381-4 0  9993
2 43074  86.3986 343.6325 0002159  84.5863 275.5579 14.34218229436747
IRIDIUM 134             
1 43075U 17083F   26116.70679603  .00000122  00000+0  36512-4 0  9997
2 43075  86.3990 343.5949 0002275  86.0449 274.1007 14.34218058436729
IRIDIUM 137             
1 43076U 17083G   26116.85901719  .00000061  00000+0  14663-4 0  9995
2 43076  86.3994 343.6229 0002100  72.5373 287.6052 14.34218084436817
IRIDIUM 141             
1 43077U 17083H   26116.71313635  .00000210  00000+0  67823-4 0  9997
2 43077  86.3986 343.5175 0002077  87.1919 272.9515 14.34218982436794
IRIDIUM 153             
1 43078U 17083J   26116.94439112  .00000047  00000+0  97366-5 0  9996
2 43078  86.3936 311.9112 0002134  95.0170 265.1269 14.34217833437932
IRIDIUM 131             
1 43079U 17083K   26116.70045323  .00000065  00000+0  16207-4 0  9992
2 43079  86.3993 343.7054 0002078  86.0044 274.1389 14.34217753436721
IRIDIUM 144             
1 43249U 18030A   26116.95073715  .00000067  00000+0  16697-4 0  9992
2 43249  86.3934 311.8389 0002226  86.0884 274.0566 14.34217374422796
IRIDIUM 149             
1 43250U 18030B   26116.81754238  .00000075  00000+0  19567-4 0  9993
2 43250  86.3933 311.8622 0002072  90.2784 269.8650 14.34217525422796
IRIDIUM 157             
1 43251U 18030C   26116.83656800  .00000069  00000+0  17502-4 0  9992
2 43251  86.3935 311.9063 0002168  89.2289 270.9155 14.34217842422776
IRIDIUM 140             
1 43252U 18030D   26116.92536630  .00000075  00000+0  19757-4 0  9992
2 43252  86.3935 311.8818 0002222  88.9397 271.2054 14.34217641422848
IRIDIUM 145             
1 43253U 18030E   26116.91267952  .00000069  00000+0  17546-4 0  9997
2 43253  86.3936 311.8596 0002359  82.4117 277.7347 14.34217855422778
IRIDIUM 146             
1 43254U 18030F   26116.61457734  .00000073  00000+0  18903-4 0  9997
2 43254  86.3934 311.9966 0002225  86.4694 273.6756 14.34217901422743
IRIDIUM 148             
1 43255U 18030G   26116.93172222  .00000063  00000+0  15265-4 0  9996
2 43255  86.3936 311.9063 0002081  86.4930 273.6504 14.34215629422822
IRIDIUM 142             
1 43256U 18030H   26116.90000914  .00000062  00000+0  15059-4 0  9992
2 43256  86.3933 311.8105 0002285  84.3718 275.7738 14.34215156422785
IRIDIUM 150             
1 43257U 18030J   26116.93804839  .00000007  00000+0 -45556-5 0  9990
2 43257  86.3931 311.9090 0002082  88.2523 271.8912 14.34217623422816
IRIDIUM 143             
1 43258U 18030K   26116.91902101  .00000042  00000+0  80073-5 0  9991
2 43258  86.3939 312.0077 0002262  86.3797 273.7658 14.34217886422745
IRIDIUM 161             
1 43478U 18047C   26116.93350118  .00000194  00000+0  51530-4 0  9993
2 43478  86.4446 109.9058 0002024  91.2272 268.9161 14.43281584417749
