[{"OBJECT_NAME":"IRIDIUM 151","OBJECT_ID":"2017-083E","EPOCH":"2026-04-26T14:22:31.154016","MEAN_MOTION":14.34218229,"ECCENTRICITY":0.0002159,"INCLINATION":86.3986,"RA_OF_ASC_NODE":343.6325,"ARG_OF_PERICENTER":84.5863,"MEAN_ANOMALY":275.5579,"EPHEMERIS_TYPE":0,"CLASSIFICATION_TYPE":"U","NORAD_CAT_ID":43074,"ELEMENT_SET_NO":999,"REV_AT_EPOCH":43674,"BSTAR":3.3381e-5,"MEAN_MOTION_DOT":1.13e-6,"MEAN_MOTION_DDOT":0},{"OBJECT_NAME":"IRIDIUM 134","OBJECT_ID":"2017-083F","EPOCH":"2026-04-26T16:57:47.176992","MEAN_MOTION":14.34218058,"ECCENTRICITY":0.00022757,"INCLINATION":86.399,"RA_OF_ASC_NODE":343.5949,"ARG_OF_PERICENTER":86.0449,"MEAN_ANOMALY":274.1007,"EPHEMERIS_TYPE":0,"CLASSIFICATION_TYPE":"U","NORAD_CAT_ID":43075,"ELEMENT_SET_NO":999,"REV_AT_EPOCH":43672,"BSTAR":3.6511864e-5,"MEAN_MOTION_DOT":1.22e-6,"MEAN_MOTION_DDOT":0},{"OBJECT_NAME":"IRIDIUM 137","OBJECT_ID":"2017-083G","EPOCH":"2026-04-26T20:36:59.085216","MEAN_MOTION":14.34218084,"ECCENTRICITY":0.00021007,"INCLINATION":86.3994,"RA_OF_ASC_NODE":343.6229,"ARG_OF_PERICENTER":72.5373,"MEAN_ANOMALY":287.6052,"EPHEMERIS_TYPE":0,"CLASSIFICATION_TYPE":"U","NORAD_CAT_ID":43076,"ELEMENT_SET_NO":999,"REV_AT_EPOCH":43681,"BSTAR":1.4663055e-5,"MEAN_MOTION_DOT":6.1e-7,"MEAN_MOTION_DDOT":0},{"OBJECT_NAME":"IRIDIUM 141","OBJECT_ID":"2017-083H","EPOCH":"2026-04-26T17:06:54.980640","MEAN_MOTION":14.34218982,"ECCENTRICITY":0.00020773,"INCLINATION":86.3986,"RA_OF_ASC_NODE":343.5175,"ARG_OF_PERICENTER":87.1919,"MEAN_ANOMALY":272.9515,"EPHEMERIS_TYPE":0,"CLASSIFICATION_TYPE":"U","NORAD_CAT_ID":43077,"ELEMENT_SET_NO":999,"REV_AT_EPOCH":43679,"BSTAR":6.7823412e-5,"MEAN_MOTION_DOT":2.1e-6,"MEAN_MOTION_DDOT":0},{"OBJECT_NAME":"IRIDIUM 153","OBJECT_ID":"2017-083J","EPOCH":"2026-04-26T22:39:55.392768","MEAN_MOTION":14.34217833,"ECCENTRICITY":0.0002134,"INCLINATION":86.3936,"RA_OF_ASC_NODE":311.9112,"ARG_OF_PERICENTER":95.017,"MEAN_ANOMALY":265.1269,"EPHEMERIS_TYPE":0,"CLASSIFICATION_TYPE":"U","NORAD_CAT_ID":43078,"ELEMENT_SET_NO":999,"REV_AT_EPOCH":43793,"BSTAR":9.736648e-6,"MEAN_MOTION_DOT":4.7e-7,"MEAN_MOTION_DDOT":0},{"OBJECT_NAME":"IRIDIUM 131","OBJECT_ID":"2017-083K","EPOCH":"2026-04-26T16:48:39.159072","MEAN_MOTION":14.34217753,"ECCENTRICITY":0.00020784,"INCLINATION":86.3993,"RA_OF_ASC_NODE":343.7054,"ARG_OF_PERICENTER":86.0044,"MEAN_ANOMALY":274.1389,"EPHEMERIS_TYPE":0,"CLASSIFICATION_TYPE":"U","NORAD_CAT_ID":43079,"ELEMENT_SET_NO":999,"REV_AT_EPOCH":43672,"BSTAR":1.6206849e-5,"MEAN_MOTION_DOT":6.5e-7,"MEAN_MOTION_DDOT":0},{"OBJECT_NAME":"IRIDIUM 144","OBJECT_ID":"2018-030A","EPOCH":"2026-04-26T22:49:03.689760","MEAN_MOTION":14.34217374,"ECCENTRICITY":0.00022263,"INCLINATION":86.3934,"RA_OF_ASC_NODE":311.8389,"ARG_OF_PERICENTER":86.0884,"MEAN_ANOMALY":274.0566,"EPHEMERIS_TYPE":0,"CLASSIFICATION_TYPE":"U","NORAD_CAT_ID":43249,"ELEMENT_SET_NO":999,"REV_AT_EPOCH":42279,"BSTAR":1.669694e-5,"MEAN_MOTION_DOT":6.7e-7,"MEAN_MOTION_DDOT":0},{"OBJECT_NAME":"IRIDIUM 149","OBJECT_ID":"2018-030B","EPOCH":"2026-04-26T19:37:15.661632","MEAN_MOTION":14.34217525,"ECCENTRICITY":0.00020726,"INCLINATION":86.3933,"RA_OF_ASC_NODE":311.8622,"ARG_OF_PERICENTER":90.2784,"MEAN_ANOMALY":269.865,"EPHEMERIS_TYPE":0,"CLASSIFICATION_TYPE":"U","NORAD_CAT_ID":43250,"ELEMENT_SET_NO":999,"REV_AT_EPOCH":42279,"BSTAR":1.9567415e-5,"MEAN_MOTION_DOT":7.5e-7,"MEAN_MOTION_DDOT":0},{"OBJECT_NAME":"IRIDIUM 157","OBJECT_ID":"2018-030C","EPOCH":"2026-04-26T20:04:39.475200","MEAN_MOTION":14.34217842,"ECCENTRICITY":0.00021686,"INCLINATION":86.3935,"RA_OF_ASC_NODE":311.9063,"ARG_OF_PERICENTER":89.2289,"MEAN_ANOMALY":270.9155,"EPHEMERIS_TYPE":0,"CLASSIFICATION_TYPE":"U","NORAD_CAT_ID":43251,"ELEMENT_SET_NO":999,"REV_AT_EPOCH":42277,"BSTAR":1.7502404e-5,"MEAN_MOTION_DOT":6.9e-7,"MEAN_MOTION_DDOT":0},{"OBJECT_NAME":"IRIDIUM 140","OBJECT_ID":"2018-030D","EPOCH":"2026-04-26T22:12:31.648320","MEAN_MOTION":14.34217641,"ECCENTRICITY":0.00022223,"INCLINATION":86.3935,"RA_OF_ASC_NODE":311.8818,"ARG_OF_PERICENTER":88.9397,"MEAN_ANOMALY":271.2054,"EPHEMERIS_TYPE":0,"CLASSIFICATION_TYPE":"U","NORAD_CAT_ID":43252,"ELEMENT_SET_NO":999,"REV_AT_EPOCH":42284,"BSTAR":1.9756647e-5,"MEAN_MOTION_DOT":7.5e-7,"MEAN_MOTION_DDOT":0},{"OBJECT_NAME":"IRIDIUM 145","OBJECT_ID":"2018-030E","EPOCH":"2026-04-26T21:54:15.510528","MEAN_MOTION":14.34217855,"ECCENTRICITY":0.00023592,"INCLINATION":86.3936,"RA_OF_ASC_NODE":311.8596,"ARG_OF_PERICENTER":82.4117,"MEAN_ANOMALY":277.7347,"EPHEMERIS_TYPE":0,"CLASSIFICATION_TYPE":"U","NORAD_CAT_ID":43253,"ELEMENT_SET_NO":999,"REV_AT_EPOCH":42277,"BSTAR":1.7545566e-5,"MEAN_MOTION_DOT":6.9e-7,"MEAN_MOTION_DDOT":0},{"OBJECT_NAME":"IRIDIUM 146","OBJECT_ID":"2018-030F","EPOCH":"2026-04-26T14:44:59.482176","MEAN_MOTION":14.34217901,"ECCENTRICITY":0.00022259,"INCLINATION":86.3934,"RA_OF_ASC_NODE":311.9966,"ARG_OF_PERICENTER":86.4694,"MEAN_ANOMALY":273.6756,"EPHEMERIS_TYPE":0,"CLASSIFICATION_TYPE":"U","NORAD_CAT_ID":43254,"ELEMENT_SET_NO":999,"REV_AT_EPOCH":42274,"BSTAR":1.8902588e-5,"MEAN_MOTION_DOT":7.3e-7,"MEAN_MOTION_DDOT":0},{"OBJECT_NAME":"IRIDIUM 148","OBJECT_ID":"2018-030G","EPOCH":"2026-04-26T22:21:40.799808","MEAN_MOTION":14.34215629,"ECCENTRICITY":0.00020819,"INCLINATION":86.3936,"RA_OF_ASC_NODE":311.9063,"ARG_OF_PERICENTER":86.493,"MEAN_ANOMALY":273.6504,"EPHEMERIS_TYPE":0,"CLASSIFICATION_TYPE":"U","NORAD_CAT_ID":43255,"ELEMENT_SET_NO":999,"REV_AT_EPOCH":42282,"BSTAR":1.5265043e-5,"MEAN_MOTION_DOT":6.3e-7,"MEAN_MOTION_DDOT":0},{"OBJECT_NAME":"IRIDIUM 142","OBJECT_ID":"2018-030H","EPOCH":"2026-04-26T21:36:00.789696","MEAN_MOTION":14.34215156,"ECCENTRICITY":0.00022858,"INCLINATION":86.3933,"RA_OF_ASC_NODE":311.8105,"ARG_OF_PERICENTER":84.3718,"MEAN_ANOMALY":275.7738,"EPHEMERIS_TYPE":0,"CLASSIFICATION_TYPE":"U","NORAD_CAT_ID":43256,"ELEMENT_SET_NO":999,"REV_AT_EPOCH":42278,"BSTAR":1.5058817e-5,"MEAN_MOTION_DOT":6.2e-7,"MEAN_MOTION_DDOT":0},{"OBJECT_NAME":"IRIDIUM 150","OBJECT_ID":"2018-030J","EPOCH":"2026-04-26T22:30:47.380896","MEAN_MOTION":14.34217623,"ECCENTRICITY":0.00020829,"INCLINATION":86.3931,"RA_OF_ASC_NODE":311.909,"ARG_OF_PERICENTER":88.2523,"MEAN_ANOMALY":271.8912,"EPHEMERIS_TYPE":0,"CLASSIFICATION_TYPE":"U","NORAD_CAT_ID":43257,"ELEMENT_SET_NO":999,"REV_AT_EPOCH":42281,"BSTAR":-4.55556e-6,"MEAN_MOTION_DOT":7.0e-8,"MEAN_MOTION_DDOT":0},{"OBJECT_NAME":"IRIDIUM 143","OBJECT_ID":"2018-030K","EPOCH":"2026-04-26T22:03:23.415264","MEAN_MOTION":14.34217886,"ECCENTRICITY":0.00022628,"INCLINATION":86.3939,"RA_OF_ASC_NODE":312.0077,"ARG_OF_PERICENTER":86.3797,"MEAN_ANOMALY":273.7658,"EPHEMERIS_TYPE":0,"CLASSIFICATION_TYPE":"U","NORAD_CAT_ID":43258,"ELEMENT_SET_NO":999,"REV_AT_EPOCH":42274,"BSTAR":8.007293e-6,"MEAN_MOTION_DOT":4.2e-7,"MEAN_MOTION_DDOT":0},{"OBJECT_NAME":"IRIDIUM 161","OBJECT_ID":"2018-047C","EPOCH":"2026-04-26T22:24:14.501952","MEAN_MOTION":14.43281584,"ECCENTRICITY":0.00020249,"INCLINATION":86.4446,"RA_OF_ASC_NODE":109.9058,"ARG_OF_PERICENTER":91.2272,"MEAN_ANOMALY":268.9161,"EPHEMERIS_TYPE":0,"CLASSIFICATION_TYPE":"U","NORAD_CAT_ID":43478,"ELEMENT_SET_NO":999,"REV_AT_EPOCH":41774,"BSTAR":5.1530288e-5,"MEAN_MOTION_DOT":1.94e-6,"MEAN_MOTION_DDOT":0}]
